[{"OBJECT_NAME":"DUPLEX","OBJECT_ID":"1998-067XS","EPOCH":"2026-04-05T06:50:09.612672","MEAN_MOTION":15.58054408,"ECCENTRICITY":0.0003389,"INCLINATION":51.6286,"RA_OF_ASC_NODE":296.2512,"ARG_OF_PERICENTER":238.8669,"MEAN_ANOMALY":121.1991,"EPHEMERIS_TYPE":0,"CLASSIFICATION_TYPE":"U","NORAD_CAT_ID":66906,"ELEMENT_SET_NO":999,"REV_AT_EPOCH":1927,"BSTAR":0.00045585,"MEAN_MOTION_DOT":0.00034554,"MEAN_MOTION_DDOT":0},{"OBJECT_NAME":"ISS OBJECT XT","OBJECT_ID":"1998-067XT","EPOCH":"2026-04-05T13:27:59.922144","MEAN_MOTION":15.80878139,"ECCENTRICITY":0.00074646,"INCLINATION":51.6217,"RA_OF_ASC_NODE":287.5441,"ARG_OF_PERICENTER":256.2998,"MEAN_ANOMALY":103.7173,"EPHEMERIS_TYPE":0,"CLASSIFICATION_TYPE":"U","NORAD_CAT_ID":66907,"ELEMENT_SET_NO":999,"REV_AT_EPOCH":1941,"BSTAR":0.0014686827,"MEAN_MOTION_DOT":0.00300489,"MEAN_MOTION_DDOT":0},{"OBJECT_NAME":"ISS OBJECT XU","OBJECT_ID":"1998-067XU","EPOCH":"2026-04-05T13:20:22.791840","MEAN_MOTION":15.8126187,"ECCENTRICITY":0.00075765,"INCLINATION":51.6221,"RA_OF_ASC_NODE":287.5051,"ARG_OF_PERICENTER":255.7016,"MEAN_ANOMALY":104.3145,"EPHEMERIS_TYPE":0,"CLASSIFICATION_TYPE":"U","NORAD_CAT_ID":66908,"ELEMENT_SET_NO":999,"REV_AT_EPOCH":1941,"BSTAR":0.0014908714,"MEAN_MOTION_DOT":0.00310882,"MEAN_MOTION_DDOT":0},{"OBJECT_NAME":"SILVERSAT","OBJECT_ID":"1998-067XV","EPOCH":"2026-04-05T13:00:23.126112","MEAN_MOTION":15.88922443,"ECCENTRICITY":0.00093308,"INCLINATION":51.6182,"RA_OF_ASC_NODE":285.8891,"ARG_OF_PERICENTER":262.9398,"MEAN_ANOMALY":97.0546,"EPHEMERIS_TYPE":0,"CLASSIFICATION_TYPE":"U","NORAD_CAT_ID":66909,"ELEMENT_SET_NO":999,"REV_AT_EPOCH":1943,"BSTAR":0.0017021307,"MEAN_MOTION_DOT":0.00493552,"MEAN_MOTION_DDOT":0.00010204584},{"OBJECT_NAME":"ISS OBJECT XW","OBJECT_ID":"1998-067XW","EPOCH":"2026-04-04T19:36:47.567808","MEAN_MOTION":15.78347512,"ECCENTRICITY":0.00074492,"INCLINATION":51.6195,"RA_OF_ASC_NODE":291.5715,"ARG_OF_PERICENTER":246.0581,"MEAN_ANOMALY":113.9639,"EPHEMERIS_TYPE":0,"CLASSIFICATION_TYPE":"U","NORAD_CAT_ID":66910,"ELEMENT_SET_NO":999,"REV_AT_EPOCH":1929,"BSTAR":0.0012620228,"MEAN_MOTION_DOT":0.00228077,"MEAN_MOTION_DDOT":0},{"OBJECT_NAME":"ISS OBJECT XX","OBJECT_ID":"1998-067XX","EPOCH":"2026-04-05T13:35:47.572512","MEAN_MOTION":16.01150374,"ECCENTRICITY":0.00119207,"INCLINATION":51.6137,"RA_OF_ASC_NODE":283.7512,"ARG_OF_PERICENTER":271.0584,"MEAN_ANOMALY":88.906,"EPHEMERIS_TYPE":0,"CLASSIFICATION_TYPE":"U","NORAD_CAT_ID":66911,"ELEMENT_SET_NO":999,"REV_AT_EPOCH":1945,"BSTAR":0.0019309668,"MEAN_MOTION_DOT":0.01084266,"MEAN_MOTION_DDOT":0.00060875238},{"OBJECT_NAME":"ISS OBJECT XY","OBJECT_ID":"1998-067XY","EPOCH":"2026-04-05T13:36:31.104288","MEAN_MOTION":15.69752347,"ECCENTRICITY":0.00052066,"INCLINATION":51.6244,"RA_OF_ASC_NODE":290.6177,"ARG_OF_PERICENTER":249.4061,"MEAN_ANOMALY":110.6378,"EPHEMERIS_TYPE":0,"CLASSIFICATION_TYPE":"U","NORAD_CAT_ID":66912,"ELEMENT_SET_NO":999,"REV_AT_EPOCH":1936,"BSTAR":0.0010619154,"MEAN_MOTION_DOT":0.00130613,"MEAN_MOTION_DDOT":0},{"OBJECT_NAME":"KNACKSAT-2","OBJECT_ID":"1998-067XZ","EPOCH":"2026-04-05T13:28:54.264288","MEAN_MOTION":15.54221784,"ECCENTRICITY":0.00108174,"INCLINATION":51.6318,"RA_OF_ASC_NODE":298.1018,"ARG_OF_PERICENTER":285.0563,"MEAN_ANOMALY":74.923,"EPHEMERIS_TYPE":0,"CLASSIFICATION_TYPE":"U","NORAD_CAT_ID":67683,"ELEMENT_SET_NO":999,"REV_AT_EPOCH":896,"BSTAR":0.00070083459,"MEAN_MOTION_DOT":0.00046448,"MEAN_MOTION_DDOT":0},{"OBJECT_NAME":"CORAL","OBJECT_ID":"1998-067YA","EPOCH":"2026-04-05T14:22:56.670528","MEAN_MOTION":15.59334849,"ECCENTRICITY":0.00137093,"INCLINATION":51.6286,"RA_OF_ASC_NODE":296.8523,"ARG_OF_PERICENTER":276.0904,"MEAN_ANOMALY":83.8527,"EPHEMERIS_TYPE":0,"CLASSIFICATION_TYPE":"U","NORAD_CAT_ID":67684,"ELEMENT_SET_NO":999,"REV_AT_EPOCH":898,"BSTAR":0.0012635585,"MEAN_MOTION_DOT":0.00102754,"MEAN_MOTION_DDOT":0},{"OBJECT_NAME":"GXIBA-1","OBJECT_ID":"1998-067YB","EPOCH":"2026-04-05T13:10:16.974048","MEAN_MOTION":15.54864526,"ECCENTRICITY":0.00125806,"INCLINATION":51.6303,"RA_OF_ASC_NODE":298.0165,"ARG_OF_PERICENTER":282.576,"MEAN_ANOMALY":77.3823,"EPHEMERIS_TYPE":0,"CLASSIFICATION_TYPE":"U","NORAD_CAT_ID":67685,"ELEMENT_SET_NO":999,"REV_AT_EPOCH":896,"BSTAR":0.00076761918,"MEAN_MOTION_DOT":0.00052226,"MEAN_MOTION_DDOT":0},{"OBJECT_NAME":"UITMSAT-2","OBJECT_ID":"1998-067YC","EPOCH":"2026-04-05T14:14:11.419872","MEAN_MOTION":15.56037325,"ECCENTRICITY":0.00096021,"INCLINATION":51.63,"RA_OF_ASC_NODE":297.565,"ARG_OF_PERICENTER":257.2725,"MEAN_ANOMALY":102.7193,"EPHEMERIS_TYPE":0,"CLASSIFICATION_TYPE":"U","NORAD_CAT_ID":67686,"ELEMENT_SET_NO":999,"REV_AT_EPOCH":897,"BSTAR":0.00091269099,"MEAN_MOTION_DOT":0.00064965,"MEAN_MOTION_DDOT":0},{"OBJECT_NAME":"HMU-SAT2","OBJECT_ID":"1998-067YD","EPOCH":"2026-04-04T18:48:25.578432","MEAN_MOTION":15.54504888,"ECCENTRICITY":0.0009085,"INCLINATION":51.631,"RA_OF_ASC_NODE":301.9093,"ARG_OF_PERICENTER":256.2021,"MEAN_ANOMALY":103.7959,"EPHEMERIS_TYPE":0,"CLASSIFICATION_TYPE":"U","NORAD_CAT_ID":67687,"ELEMENT_SET_NO":999,"REV_AT_EPOCH":876,"BSTAR":0.00080536,"MEAN_MOTION_DOT":0.00054021,"MEAN_MOTION_DDOT":0},{"OBJECT_NAME":"LEOPARD","OBJECT_ID":"1998-067YE","EPOCH":"2026-04-05T14:27:14.971968","MEAN_MOTION":15.55505012,"ECCENTRICITY":0.00093086,"INCLINATION":51.6301,"RA_OF_ASC_NODE":297.6258,"ARG_OF_PERICENTER":257.8791,"MEAN_ANOMALY":102.1158,"EPHEMERIS_TYPE":0,"CLASSIFICATION_TYPE":"U","NORAD_CAT_ID":67688,"ELEMENT_SET_NO":999,"REV_AT_EPOCH":889,"BSTAR":0.00083628795,"MEAN_MOTION_DOT":0.00058264,"MEAN_MOTION_DDOT":0},{"OBJECT_NAME":"CREW DRAGON 12","OBJECT_ID":"2026-031A","EPOCH":"2026-04-05T13:16:46.804800","MEAN_MOTION":15.4878698,"ECCENTRICITY":0.00063514,"INCLINATION":51.6328,"RA_OF_ASC_NODE":299.5432,"ARG_OF_PERICENTER":274.8255,"MEAN_ANOMALY":85.2008,"EPHEMERIS_TYPE":0,"CLASSIFICATION_TYPE":"U","NORAD_CAT_ID":67796,"ELEMENT_SET_NO":999,"REV_AT_EPOCH":56047,"BSTAR":0.00016419769,"MEAN_MOTION_DOT":8.543e-5,"MEAN_MOTION_DDOT":0},{"OBJECT_NAME":"PROGRESS-MS 33","OBJECT_ID":"2026-058A","EPOCH":"2026-04-05T13:16:46.804800","MEAN_MOTION":15.4878698,"ECCENTRICITY":0.00063514,"INCLINATION":51.6328,"RA_OF_ASC_NODE":299.5432,"ARG_OF_PERICENTER":274.8255,"MEAN_ANOMALY":85.2008,"EPHEMERIS_TYPE":0,"CLASSIFICATION_TYPE":"U","NORAD_CAT_ID":68319,"ELEMENT_SET_NO":999,"REV_AT_EPOCH":189,"BSTAR":0.00016419769,"MEAN_MOTION_DOT":8.543e-5,"MEAN_MOTION_DDOT":0}]
