DUPLEX                  
1 66906U 98067XS  26095.28483348  .00034554  00000+0  45585-3 0  9999
2 66906  51.6286 296.2512 0003389 238.8669 121.1991 15.58054408 19272
ISS OBJECT XT           
1 66907U 98067XT  26095.56111021  .00300489  00000+0  14687-2 0  9998
2 66907  51.6217 287.5441 0007464 256.2998 103.7173 15.80878139 19412
ISS OBJECT XU           
1 66908U 98067XU  26095.55581935  .00310882  00000+0  14909-2 0  9998
2 66908  51.6221 287.5051 0007576 255.7016 104.3145 15.81261870 19419
SILVERSAT               
1 66909U 98067XV  26095.54193433  .00493552  10205-3  17021-2 0  9996
2 66909  51.6182 285.8891 0009330 262.9398  97.0546 15.88922443 19434
ISS OBJECT XW           
1 66910U 98067XW  26094.81721722  .00228077  00000+0  12620-2 0  9991
2 66910  51.6195 291.5715 0007449 246.0581 113.9639 15.78347512 19297
ISS OBJECT XX           
1 66911U 98067XX  26095.56652283  .01084266  60875-3  19310-2 0  9994
2 66911  51.6137 283.7512 0011920 271.0584  88.9060 16.01150374 19454
ISS OBJECT XY           
1 66912U 98067XY  26095.56702667  .00130613  00000+0  10619-2 0  9997
2 66912  51.6244 290.6177 0005206 249.4061 110.6378 15.69752347 19363
KNACKSAT-2              
1 67683U 98067XZ  26095.56173917  .00046448  00000+0  70083-3 0  9997
2 67683  51.6318 298.1018 0010817 285.0563  74.9230 15.54221784  8968
CORAL                   
1 67684U 98067YA  26095.59926702  .00102754  00000+0  12636-2 0  9991
2 67684  51.6286 296.8523 0013709 276.0904  83.8527 15.59334849  8983
GXIBA-1                 
1 67685U 98067YB  26095.54880757  .00052226  00000+0  76762-3 0  9995
2 67685  51.6303 298.0165 0012580 282.5760  77.3823 15.54864526  8968
UITMSAT-2               
1 67686U 98067YC  26095.59318773  .00064965  00000+0  91269-3 0  9997
2 67686  51.6300 297.5650 0009602 257.2725 102.7193 15.56037325  8975
HMU-SAT2                
1 67687U 98067YD  26094.78362938  .00054021  00000+0  80536-3 0  9997
2 67687  51.6310 301.9093 0009085 256.2021 103.7959 15.54504888  8760
LEOPARD                 
1 67688U 98067YE  26095.60225662  .00058264  00000+0  83629-3 0  9991
2 67688  51.6301 297.6258 0009308 257.8791 102.1158 15.55505012  8893
CREW DRAGON 12          
1 67796U 26031A   26095.55331950  .00008543  00000+0  16420-3 0  9995
2 67796  51.6328 299.5432 0006351 274.8255  85.2008 15.48786980560475
PROGRESS-MS 33          
1 68319U 26058A   26095.55331950  .00008543  00000+0  16420-3 0  9996
2 68319  51.6328 299.5432 0006351 274.8255  85.2008 15.48786980  1893
